{
  "type": "FeatureCollection",
  "features": [
    {
      "type": "Feature",
      "properties": {
        "norad_id": 37533,
        "name": "COSMOS 2251 DEB",
        "group": "cosmos-2251-debris",
        "lat": -18.298565950972215,
        "lon": -0.8298553911143776,
        "alt_km": 756.33786166755,
        "timestamp": "2025-12-22T23:36:21.114548+00:00",
        "meta_object_name": "COSMOS 2251 DEB",
        "meta_object_id": "1993-036BNN",
        "meta_epoch": "2025-12-17T06:38:38.162976",
        "meta_mean_motion": 14.12190824,
        "meta_eccentricity": 0.0157786,
        "meta_inclination": 74.0692,
        "meta_ra_of_asc_node": 183.8069,
        "meta_arg_of_pericenter": 239.4795,
        "meta_mean_anomaly": 119.0691,
        "meta_ephemeris_type": 0,
        "meta_classification_type": "U",
        "meta_norad_cat_id": 37533,
        "meta_element_set_no": 999,
        "meta_rev_at_epoch": 62985,
        "meta_bstar": 0.0010470743,
        "meta_mean_motion_dot": 2.138e-05,
        "meta_mean_motion_ddot": 0,
        "tle_line1": "1 37533U 93036BNN 25351.27683059  .00002138  00000+0  10471-2 0  9996",
        "tle_line2": "2 37533  74.0692 183.8069 0157786 239.4795 119.0691 14.12190824629858"
      },
      "geometry": {
        "type": "Point",
        "coordinates": [
          -0.8298553911143776,
          -18.298565950972215
        ]
      }
    },
    {
      "type": "Feature",
      "properties": {
        "norad_id": 37535,
        "name": "COSMOS 2251 DEB",
        "group": "cosmos-2251-debris",
        "lat": 26.215168336437536,
        "lon": 62.09534157524121,
        "alt_km": 715.2002719584534,
        "timestamp": "2025-12-22T23:36:21.114558+00:00",
        "meta_object_name": "COSMOS 2251 DEB",
        "meta_object_id": "1993-036BNQ",
        "meta_epoch": "2025-12-22T12:14:49.178688",
        "meta_mean_motion": 14.58516749,
        "meta_eccentricity": 0.00272159,
        "meta_inclination": 74.0234,
        "meta_ra_of_asc_node": 54.8871,
        "meta_arg_of_pericenter": 192.5305,
        "meta_mean_anomaly": 230.961,
        "meta_ephemeris_type": 0,
        "meta_classification_type": "U",
        "meta_norad_cat_id": 37535,
        "meta_element_set_no": 999,
        "meta_rev_at_epoch": 85467,
        "meta_bstar": 0.00067042494,
        "meta_mean_motion_dot": 3.102e-05,
        "meta_mean_motion_ddot": 0,
        "tle_line1": "1 37535U 93036BNQ 25356.51029142  .00003102  00000+0  67042-3 0  9996",
        "tle_line2": "2 37535  74.0234  54.8871 0027215 192.5305 230.9610 14.58516749854671"
      },
      "geometry": {
        "type": "Point",
        "coordinates": [
          62.09534157524121,
          26.215168336437536
        ]
      }
    },
    {
      "type": "Feature",
      "properties": {
        "norad_id": 37537,
        "name": "COSMOS 2251 DEB",
        "group": "cosmos-2251-debris",
        "lat": 13.925627237025761,
        "lon": 62.17121512370871,
        "alt_km": 795.7094761744156,
        "timestamp": "2025-12-22T23:36:21.114568+00:00",
        "meta_object_name": "COSMOS 2251 DEB",
        "meta_object_id": "1993-036BNS",
        "meta_epoch": "2025-12-21T23:27:31.159008",
        "meta_mean_motion": 14.37503433,
        "meta_eccentricity": 0.00506975,
        "meta_inclination": 74.0118,
        "meta_ra_of_asc_node": 248.1014,
        "meta_arg_of_pericenter": 25.8838,
        "meta_mean_anomaly": 334.4834,
        "meta_ephemeris_type": 0,
        "meta_classification_type": "U",
        "meta_norad_cat_id": 37537,
        "meta_element_set_no": 999,
        "meta_rev_at_epoch": 85166,
        "meta_bstar": 0.00018759264,
        "meta_mean_motion_dot": 5.44e-06,
        "meta_mean_motion_ddot": 0,
        "tle_line1": "1 37537U 93036BNS 25355.97744397  .00000544  00000+0  18759-3 0  9991",
        "tle_line2": "2 37537  74.0118 248.1014 0050697  25.8838 334.4834 14.37503433851667"
      },
      "geometry": {
        "type": "Point",
        "coordinates": [
          62.17121512370871,
          13.925627237025761
        ]
      }
    },
    {
      "type": "Feature",
      "properties": {
        "norad_id": 37546,
        "name": "COSMOS 2251 DEB",
        "group": "cosmos-2251-debris",
        "lat": 33.889688347117605,
        "lon": 88.8841574940197,
        "alt_km": 621.165169802076,
        "timestamp": "2025-12-22T23:36:21.114578+00:00",
        "meta_object_name": "COSMOS 2251 DEB",
        "meta_object_id": "1993-036BPB",
        "meta_epoch": "2025-12-22T05:36:41.418144",
        "meta_mean_motion": 14.80847243,
        "meta_eccentricity": 0.00051432,
        "meta_inclination": 74.0225,
        "meta_ra_of_asc_node": 79.2675,
        "meta_arg_of_pericenter": 73.5105,
        "meta_mean_anomaly": 286.6636,
        "meta_ephemeris_type": 0,
        "meta_classification_type": "U",
        "meta_norad_cat_id": 37546,
        "meta_element_set_no": 999,
        "meta_rev_at_epoch": 66028,
        "meta_bstar": 0.0026855013,
        "meta_mean_motion_dot": 0.00020767,
        "meta_mean_motion_ddot": 0,
        "tle_line1": "1 37546U 93036BPB 25356.23381271  .00020767  00000+0  26855-2 0  9993",
        "tle_line2": "2 37546  74.0225  79.2675 0005143  73.5105 286.6636 14.80847243660287"
      },
      "geometry": {
        "type": "Point",
        "coordinates": [
          88.8841574940197,
          33.889688347117605
        ]
      }
    },
    {
      "type": "Feature",
      "properties": {
        "norad_id": 37959,
        "name": "COSMOS 2251 DEB",
        "group": "cosmos-2251-debris",
        "lat": 57.34692450088215,
        "lon": -169.1559579940305,
        "alt_km": 672.2055280236082,
        "timestamp": "2025-12-22T23:36:21.114589+00:00",
        "meta_object_name": "COSMOS 2251 DEB",
        "meta_object_id": "1993-036BPJ",
        "meta_epoch": "2025-12-21T21:31:34.881600",
        "meta_mean_motion": 14.58196001,
        "meta_eccentricity": 0.00572652,
        "meta_inclination": 74.0108,
        "meta_ra_of_asc_node": 39.4932,
        "meta_arg_of_pericenter": 180.3481,
        "meta_mean_anomaly": 356.9847,
        "meta_ephemeris_type": 0,
        "meta_classification_type": "U",
        "meta_norad_cat_id": 37959,
        "meta_element_set_no": 999,
        "meta_rev_at_epoch": 80260,
        "meta_bstar": 0.00054900426,
        "meta_mean_motion_dot": 2.561e-05,
        "meta_mean_motion_ddot": 0,
        "tle_line1": "1 37959U 93036BPJ 25355.89693150  .00002561  00000+0  54900-3 0  9999",
        "tle_line2": "2 37959  74.0108  39.4932 0057265 180.3481 356.9847 14.58196001802608"
      },
      "geometry": {
        "type": "Point",
        "coordinates": [
          -169.1559579940305,
          57.34692450088215
        ]
      }
    },
    {
      "type": "Feature",
      "properties": {
        "norad_id": 37960,
        "name": "COSMOS 2251 DEB",
        "group": "cosmos-2251-debris",
        "lat": -66.33897137727635,
        "lon": 128.22388100988493,
        "alt_km": 908.5046178133716,
        "timestamp": "2025-12-22T23:36:21.114599+00:00",
        "meta_object_name": "COSMOS 2251 DEB",
        "meta_object_id": "1993-036BPK",
        "meta_epoch": "2025-12-21T05:19:33.246912",
        "meta_mean_motion": 14.07880113,
        "meta_eccentricity": 0.0248301,
        "meta_inclination": 74.0587,
        "meta_ra_of_asc_node": 172.0268,
        "meta_arg_of_pericenter": 188.6422,
        "meta_mean_anomaly": 171.0406,
        "meta_ephemeris_type": 0,
        "meta_classification_type": "U",
        "meta_norad_cat_id": 37960,
        "meta_element_set_no": 999,
        "meta_rev_at_epoch": 77525,
        "meta_bstar": 0.00064412,
        "meta_mean_motion_dot": 1.424e-05,
        "meta_mean_motion_ddot": 0,
        "tle_line1": "1 37960U 93036BPK 25355.22191258  .00001424  00000+0  64412-3 0  9996",
        "tle_line2": "2 37960  74.0587 172.0268 0248301 188.6422 171.0406 14.07880113775251"
      },
      "geometry": {
        "type": "Point",
        "coordinates": [
          128.22388100988493,
          -66.33897137727635
        ]
      }
    },
    {
      "type": "Feature",
      "properties": {
        "norad_id": 37961,
        "name": "COSMOS 2251 DEB",
        "group": "cosmos-2251-debris",
        "lat": 0.8452108904038709,
        "lon": -62.60944983240268,
        "alt_km": 674.1659929556399,
        "timestamp": "2025-12-22T23:36:21.114608+00:00",
        "meta_object_name": "COSMOS 2251 DEB",
        "meta_object_id": "1993-036BPL",
        "meta_epoch": "2025-12-13T03:18:27.462240",
        "meta_mean_motion": 14.57979799,
        "meta_eccentricity": 0.00406759,
        "meta_inclination": 74.0407,
        "meta_ra_of_asc_node": 136.3488,
        "meta_arg_of_pericenter": 216.8805,
        "meta_mean_anomaly": 142.9561,
        "meta_ephemeris_type": 0,
        "meta_classification_type": "U",
        "meta_norad_cat_id": 37961,
        "meta_element_set_no": 999,
        "meta_rev_at_epoch": 80071,
        "meta_bstar": 0.001729191,
        "meta_mean_motion_dot": 8.011e-05,
        "meta_mean_motion_ddot": 0,
        "tle_line1": "1 37961U 93036BPL 25347.13781785  .00008011  00000+0  17292-2 0  9990",
        "tle_line2": "2 37961  74.0407 136.3488 0040675 216.8805 142.9561 14.57979799800716"
      },
      "geometry": {
        "type": "Point",
        "coordinates": [
          -62.60944983240268,
          0.8452108904038709
        ]
      }
    }
  ]
}